GEOSCAN 3 (RS92S3)      
1 64893U 25155T   26198.29249012  .00010117  00000+0  28733-3 0  9998
2 64893  97.4557 168.5450 0008533  81.9263 278.2949 15.36353974 85477
INNOSAT 3 (RS92S0)      
1 64894U 25155U   26198.30134117  .00022455  00000+0  46217-3 0  9995
2 64894  97.4502 170.5690 0008138  85.8263 274.3916 15.45923405 85610
KNACKSAT-2              
1 67683U 98067XZ  26198.24140568  .00034112  00000+0  37883-3 0  9998
2 67683  51.6276 143.0009 0007951 335.1166  24.9444 15.62548905 24977
