OBJECT_NAME,OBJECT_ID,EPOCH,MEAN_MOTION,ECCENTRICITY,INCLINATION,RA_OF_ASC_NODE,ARG_OF_PERICENTER,MEAN_ANOMALY,EPHEMERIS_TYPE,CLASSIFICATION_TYPE,NORAD_CAT_ID,ELEMENT_SET_NO,REV_AT_EPOCH,BSTAR,MEAN_MOTION_DOT,MEAN_MOTION_DDOT
GEOSCAN 3 (RS92S3),2025-155T,2026-07-17T07:01:11.146368,15.36353974,.00085334,97.4557,168.5450,81.9263,278.2949,0,U,64893,999,8547,.28733355E-3,.10117E-3,0
INNOSAT 3 (RS92S0),2025-155U,2026-07-17T07:13:55.877088,15.45923405,.00081387,97.4502,170.5690,85.8263,274.3916,0,U,64894,999,8561,.46216693E-3,.22455E-3,0
KNACKSAT-2,1998-067XZ,2026-07-17T05:47:37.450752,15.62548905,.00079517,51.6276,143.0009,335.1166,24.9444,0,U,67683,999,2497,.37882976E-3,.34112E-3,0
